NORAD_CAT_ID,OBJECT_NAME,OBJECT_TYPE,EPOCH,MEAN_MOTION,ECCENTRICITY,INCLINATION,RA_OF_ASC_NODE,ARG_OF_PERICENTER,MEAN_ANOMALY,BSTAR,MEAN_MOTION_DOT,MEAN_MOTION_DDOT,TLE_LINE0,TLE_LINE1,TLE_LINE2,SEMIMAJOR_AXIS,PERIOD,APOGEE,PERIGEE,DECAYED
53278.0,STARLINK-4180,PAYLOAD,2023-02-19 17:30:00,15.08848129,9.44e-05,53.2145,144.8901,100.6853,259.4245,0.00028983,4.329e-05,0.0,0 STARLINK-4180,1 53278U 22086AN  23050.72916991  .00004329  00000-0  28983-3 0  9998,2 53278  53.2145 144.8901 0000944 100.6853 259.4245 15.08848129 32859,6917.856,95.437,540.374,539.067,0.0
53278.0,STARLINK-4180,PAYLOAD,2023-02-20 12:34:38,15.08844742,0.0001038,53.2136,141.3184,111.3338,248.7765,0.00010073,1.316e-05,0.0,0 STARLINK-4180,1 53278U 22086AN  23051.52406078  .00001316  00000-0  10073-3 0  9991,2 53278  53.2136 141.3184 0001038 111.3338 248.7765 15.08844742 32974,6917.866,95.437,540.449,539.013,0.0
53278.0,STARLINK-4180,PAYLOAD,2023-02-20 15:45:24,15.08850165,0.0001029,53.2139,140.7245,110.0646,250.0457,0.00016196,2.291e-05,0.0,0 STARLINK-4180,1 53278U 22086AN  23051.65653517  .00002291  00000-0  16196-3 0  9992,2 53278  53.2139 140.7245 0001029 110.0646 250.0457 15.08850165 32998,6917.849,95.437,540.426,539.002,0.0
53278.0,STARLINK-4180,PAYLOAD,2023-02-21 12:25:25,15.08848475,0.0001114,53.2134,136.8595,94.3288,265.7831,5.5265e-05,5.92e-06,0.0,0 STARLINK-4180,1 53278U 22086AN  23052.51765807  .00000592  00000-0  55265-4 0  9997,2 53278  53.2134 136.8595 0001114  94.3288 265.7831 15.08848475 33124,6917.854,95.437,540.49,538.949,0.0
53278.0,STARLINK-4180,PAYLOAD,2023-02-21 17:11:34,15.08859252,0.0001265,53.2145,135.9655,98.8502,261.2634,7.3823e-05,8.88e-06,0.0,0 STARLINK-4180,1 53278U 22086AN  23052.71636844  .00000888  00000-0  73823-4 0  9995,2 53278  53.2145 135.9655 0001265  98.8502 261.2634 15.08859252 33158,6917.822,95.436,540.562,538.811,0.0
53278.0,STARLINK-4180,PAYLOAD,2023-02-21 21:57:45,15.08836419,0.000216,53.215,135.0744,100.645,259.4785,-0.00018619,-3.25e-05,0.0,0 STARLINK-4180,1 53278U 22086AN  23052.91511161 -.00003250  00000-0 -18619-3 0  9990,2 53278  53.2150 135.0744 0002160 100.6450 259.4785 15.08836419 33182,6917.891,95.438,541.251,538.262,0.0
53278.0,STARLINK-4180,PAYLOAD,2023-02-22 10:40:49,15.08844964,9.3e-05,53.2138,132.694,109.9469,250.1623,-4.0897e-05,-9.39e-06,0.0,0 STARLINK-4180,1 53278U 22086AN  23053.44501886 -.00000939  00000-0 -40897-4 0  9997,2 53278  53.2138 132.6940 0000930 109.9469 250.1623 15.08844964 33266,6917.865,95.437,540.374,539.087,0.0
53278.0,STARLINK-4180,PAYLOAD,2023-02-22 21:48:31,15.0884315,9.45e-05,53.2143,130.6127,102.6968,257.413,-7.0009e-05,-1.402e-05,0.0,0 STARLINK-4180,1 53278U 22086AN  23053.90869920 -.00001402  00000-0 -70009-4 0  9998,2 53278  53.2143 130.6127 0000945 102.6968 257.4130 15.08843150 33503,6917.871,95.437,540.389,539.082,0.0
53278.0,STARLINK-4180,PAYLOAD,2023-02-23 10:31:37,15.08833415,0.0001372,53.2155,128.2366,104.236,255.8785,-7.5239e-05,-1.485e-05,0.0,0 STARLINK-4180,1 53278U 22086AN  23054.43863008 -.00001485  00000-0 -75239-4 0  9999,2 53278  53.2155 128.2366 0001372 104.2360 255.8785 15.08833415 33414,6917.901,95.438,540.715,538.816,0.0
53278.0,STARLINK-4180,PAYLOAD,2023-02-23 21:39:18,15.08844906,0.000113,53.2156,126.1518,90.4948,269.6174,-9.4643e-05,-1.794e-05,0.0,0 STARLINK-4180,1 53278U 22086AN  23054.90230292 -.00001794  00000-0 -94643-4 0  9997,2 53278  53.2156 126.1518 0001130  90.4948 269.6174 15.08844906 33480,6917.865,95.437,540.512,538.949,0.0
53278.0,STARLINK-4180,PAYLOAD,2023-02-24 13:33:09,15.08856202,0.0001477,53.2147,123.1777,113.4165,246.6983,-8.8995e-05,-1.705e-05,0.0,0 STARLINK-4180,1 53278U 22086AN  23055.56469669 -.00001705  00000-0 -88995-4 0  9997,2 53278  53.2147 123.1777 0001477 113.4165 246.6983 15.08856202 33750,6917.831,95.437,540.718,538.674,0.0
53278.0,STARLINK-4180,PAYLOAD,2023-02-24 21:30:06,15.08831419,0.000124,53.2145,121.6928,93.1049,267.0085,9.507e-06,-1.37e-06,0.0,0 STARLINK-4180,1 53278U 22086AN  23055.89591041 -.00000137  00000-0  95070-5 0  9993,2 53278  53.2145 121.6928 0001240  93.1049 267.0085 15.08831419 33632,6917.907,95.438,540.629,538.914,0.0
53278.0,STARLINK-4180,PAYLOAD,2023-02-25 13:23:58,15.08834284,0.0001294,53.2151,118.7196,88.9091,271.205,-2.0739e-05,-6.18e-06,0.0,0 STARLINK-4180,1 53278U 22086AN  23056.55831522 -.00000618  00000-0 -20739-4 0  9992,2 53278  53.2151 118.7196 0001294  88.9091 271.2050 15.08834284 33903,6917.898,95.438,540.658,538.868,0.0
53278.0,STARLINK-4180,PAYLOAD,2023-02-25 21:20:53,15.08838952,0.0001246,53.2148,117.2318,92.3511,267.7623,1.0069e-05,-1.28e-06,0.0,0 STARLINK-4180,1 53278U 22086AN  23056.88951190 -.00000128  00000-0  10069-4 0  9992,2 53278  53.2148 117.2318 0001246  92.3511 267.7623 15.08838952 33959,6917.884,95.438,540.611,538.887,0.0
53278.0,STARLINK-4180,PAYLOAD,2023-02-26 08:28:34,15.08849061,0.0001112,53.2145,115.1494,87.4391,272.6729,0.00016254,2.301e-05,0.0,0 STARLINK-4180,1 53278U 22086AN  23057.35318056  .00002301  00000-0  16254-3 0  9998,2 53278  53.2145 115.1494 0001112  87.4391 272.6729 15.08849061 33855,6917.853,95.437,540.487,538.948,0.0
53278.0,STARLINK-4180,PAYLOAD,2023-02-26 13:14:43,15.08865738,0.0001051,53.2143,114.2567,98.9093,261.2018,0.00016296,2.308e-05,0.0,0 STARLINK-4180,1 53278U 22086AN  23057.55188819  .00002308  00000-0  16296-3 0  9995,2 53278  53.2143 114.2567 0001051  98.9093 261.2018 15.08865738 34059,6917.802,95.436,540.394,538.94,0.0
53278.0,STARLINK-4180,PAYLOAD,2023-02-26 21:11:40,15.08842422,0.0001351,53.215,112.7706,91.7709,268.3438,-5.0773e-05,-1.096e-05,0.0,0 STARLINK-4180,1 53278U 22086AN  23057.88310819 -.00001096  00000-0 -50773-4 0  9992,2 53278  53.2150 112.7706 0001351  91.7709 268.3438 15.08842422 34108,6917.873,95.437,540.673,538.803,0.0
53278.0,STARLINK-4180,PAYLOAD,2023-02-27 06:44:00,15.08829862,0.0001454,53.2145,110.9875,98.0787,262.037,7.1154e-05,8.44e-06,0.0,0 STARLINK-4180,1 53278U 22086AN  23058.28055629  .00000844  00000-0  71154-4 0  9996,2 53278  53.2145 110.9875 0001454  98.0787 262.0370 15.08829862 33994,6917.911,95.438,540.782,538.771,0.0
53278.0,STARLINK-4180,PAYLOAD,2023-02-27 13:05:31,15.08850262,0.0001174,53.2139,109.797,103.3186,256.7937,0.00018494,2.657e-05,0.0,0 STARLINK-4180,1 53278U 22086AN  23058.54550092  .00002657  00000-0  18494-3 0  9990,2 53278  53.2139 109.7970 0001174 103.3186 256.7937 15.08850262 34034,6917.849,95.437,540.526,538.902,0.0
53278.0,STARLINK-4180,PAYLOAD,2023-02-28 03:24:00,15.08843172,0.0001223,53.2158,107.1199,111.8936,248.2186,8.4105e-08,-2.87e-06,0.0,0 STARLINK-4180,1 53278U 22086AN  23059.14166777 -.00000287  00000-0  84105-7 0  9994,2 53278  53.2158 107.1199 0001223 111.8936 248.2186 15.08843172 34126,6917.871,95.437,540.582,538.89,0.0
53278.0,STARLINK-4180,PAYLOAD,2023-02-28 12:56:17,15.08861533,0.000155,53.2149,105.3362,112.2348,247.8809,0.00014814,2.072e-05,0.0,0 STARLINK-4180,1 53278U 22086AN  23059.53909534  .00002072  00000-0  14814-3 0  9992,2 53278  53.2149 105.3362 0001550 112.2348 247.8809 15.08861533 34356,6917.815,95.436,540.752,538.607,0.0
53278.0,STARLINK-4180,PAYLOAD,2023-03-01 04:50:11,15.0881457,0.0001557,53.2146,102.3623,95.8358,264.2812,-0.00019406,-3.373e-05,0.0,0 STARLINK-4180,1 53278U 22086AN  23060.20152486 -.00003373  00000-0 -19406-3 0  9993,2 53278  53.2146 102.3623 0001557  95.8358 264.2812 15.08814570 34282,6917.958,95.439,540.9,538.746,0.0
53278.0,STARLINK-4180,PAYLOAD,2023-03-01 19:08:40,15.08820904,0.0001391,53.2148,99.6855,103.1771,256.9377,-0.00012771,-2.319e-05,0.0,0 STARLINK-4180,1 53278U 22086AN  23060.79768941 -.00002319  00000-0 -12771-3 0  9993,2 53278  53.2148  99.6855 0001391 103.1771 256.9377 15.08820904 34379,6917.939,95.439,540.766,538.841,0.0
53278.0,STARLINK-4180,PAYLOAD,2023-03-02 18:59:27,15.08862673,0.0001263,53.2145,95.2245,70.3916,289.7212,0.0011087,0.00017412,0.0,0 STARLINK-4180,1 53278U 22086AN  23061.79128859  .00017412  00000-0  11087-2 0  9998,2 53278  53.2145  95.2245 0001263  70.3916 289.7212 15.08862673 34523,6917.811,95.436,540.55,538.802,0.0
53278.0,STARLINK-4180,PAYLOAD,2023-03-03 12:28:40,15.08898593,0.0001475,53.2135,91.9542,70.159,289.9561,0.0018306,0.00029013,0.0,0 STARLINK-4180,1 53278U 22086AN  23062.51991060  .00029013  00000-0  18306-2 0  9992,2 53278  53.2135  91.9542 0001475  70.1590 289.9561 15.08898593 34806,6917.701,95.434,540.587,538.546,0.0
53278.0,STARLINK-4180,PAYLOAD,2023-03-03 14:04:03,15.08902594,0.0001477,53.2135,91.6567,70.3974,289.7177,0.0018075,0.00028645,0.0,0 STARLINK-4180,1 53278U 22086AN  23062.58614780  .00028645  00000-0  18075-2 0  9993,2 53278  53.2135  91.6567 0001477  70.3974 289.7177 15.08902594 34640,6917.689,95.434,540.576,538.532,0.0
53278.0,STARLINK-4180,PAYLOAD,2023-03-04 07:33:17,15.08853317,0.0001301,53.2134,88.3853,97.5481,262.5659,0.0014772,0.00023308,0.0,0 STARLINK-4180,1 53278U 22086AN  23063.31479152  .00023308  00000-0  14772-2 0  9998,2 53278  53.2134  88.3853 0001301  97.5481 262.5659 15.08853317 34754,6917.84,95.437,540.605,538.805,0.0
53278.0,STARLINK-4180,PAYLOAD,2023-03-04 10:44:04,15.08858294,0.0001216,53.2132,87.7907,90.9738,269.1394,0.0019091,0.00030241,0.0,0 STARLINK-4180,1 53278U 22086AN  23063.44727060  .00030241  00000-0  19091-2 0  9999,2 53278  53.2132  87.7907 0001216  90.9738 269.1394 15.08858294 34941,6917.824,95.436,540.531,538.848,0.0
53278.0,STARLINK-4180,PAYLOAD,2023-03-04 13:54:50,15.08864024,0.000122,53.2131,87.1957,93.5008,266.6124,0.0019653,0.00031149,0.0,0 STARLINK-4180,1 53278U 22086AN  23063.57974880  .00031149  00000-0  19653-2 0  9999,2 53278  53.2131  87.1957 0001220  93.5008 266.6124 15.08864024 34966,6917.807,95.436,540.516,538.828,0.0
53278.0,STARLINK-4180,PAYLOAD,2023-03-05 02:37:56,15.08839129,0.0001978,53.213,84.8164,70.8821,289.2385,0.0013822,0.00021778,0.0,0 STARLINK-4180,1 53278U 22086AN  23064.10968087  .00021778  00000-0  13822-2 0  9990,2 53278  53.2130  84.8164 0001978  70.8821 289.2385 15.08839129 34878,6917.883,95.438,541.116,538.38,0.0
